IRIDIUM 126             
1 42809U 17039G   23305.73850772  .00000491  00000+0  16815-3 0  9992
2 42809  86.4014  34.1805 0001913  92.2670 267.8745 14.34218783332579
IRIDIUM 124             
1 42810U 17039H   23305.83085256  .00000559  00000+0  16031-3 0  9997
2 42810  86.4483 330.9232 0002439  96.2454 263.9025 14.43270513336885
IRIDIUM 128             
1 42811U 17039J   23305.79900253  .00000533  00000+0  18328-3 0  9999
2 42811  86.3968  65.6778 0001862  95.7588 264.3820 14.34222391332617
IRIDIUM 121             
1 42812U 17039K   23305.75753414  .00000158  00000+0  49310-4 0  9990
2 42812  86.4015  34.1941 0002057  90.5424 269.6007 14.34218033332459
IRIDIUM 133             
1 42955U 17061A   23305.76095513  .00000466  00000+0  15930-3 0  9995
2 42955  86.3971  65.7880 0001862  87.1904 272.9505 14.34219739317409
IRIDIUM 100             
1 42956U 17061B   23305.82438352  .00000781  00000+0  27169-3 0  9992
2 42956  86.3966  65.7023 0001937  93.3956 266.7461 14.34217172317414
IRIDIUM 122             
1 42957U 17061C   23306.07174249  .00000110  00000+0  32376-4 0  9996
2 42957  86.3970  65.5970 0001848  98.6285 261.5121 14.34215631317451
IRIDIUM 129             
1 42958U 17061D   23305.74826192  .00000463  00000+0  15818-3 0  9993
2 42958  86.3969  65.7891 0001897  96.7293 263.4119 14.34222034317426
